NORAD_CAT_ID,OBJECT_NAME,OBJECT_TYPE,EPOCH,MEAN_MOTION,ECCENTRICITY,INCLINATION,RA_OF_ASC_NODE,ARG_OF_PERICENTER,MEAN_ANOMALY,BSTAR,MEAN_MOTION_DOT,MEAN_MOTION_DDOT,TLE_LINE0,TLE_LINE1,TLE_LINE2,SEMIMAJOR_AXIS,PERIOD,APOGEE,PERIGEE,DECAYED
54794.0,STARLINK-5392,PAYLOAD,2023-07-10 17:30:01,15.13141238,6.42e-05,53.2163,85.7328,125.51,234.5953,-0.00043768,-8.138e-05,0.0,0 STARLINK-5392,1 54794U 22175AN  23191.72918430 -.00008138  00000-0 -43768-3 0  9999,2 54794  53.2163  85.7328 0000642 125.5100 234.5953 15.13141238 30968,6904.764,95.166,527.073,526.186,0.0
54794.0,STARLINK-5392,PAYLOAD,2023-07-10 23:50:30,15.13117244,0.0001236,53.2172,84.541,119.4667,240.645,-0.00056442,-0.00010398,0.0,0 STARLINK-5392,1 54794U 22175AN  23191.99341182 -.00010398  00000-0 -56442-3 0  9996,2 54794  53.2172  84.5410 0001236 119.4667 240.6450 15.13117244 31003,6904.837,95.168,527.556,525.849,0.0
54794.0,STARLINK-5392,PAYLOAD,2023-07-11 17:16:50,15.13069618,8.56e-05,53.2172,81.256,105.6694,254.4394,-0.00043132,-8.009e-05,0.0,0 STARLINK-5392,1 54794U 22175AN  23192.72002414 -.00008009  00000-0 -43132-3 0  9998,2 54794  53.2172  81.2560 0000856 105.6694 254.4394 15.13069618 31110,6904.982,95.171,527.438,526.256,0.0
54794.0,STARLINK-5392,PAYLOAD,2023-07-11 23:37:19,15.1305319,0.000209,53.2167,80.0559,107.4861,252.6361,-0.00055615,-0.00010233,0.0,0 STARLINK-5392,1 54794U 22175AN  23192.98425634 -.00010233  00000-0 -55615-3 0  9990,2 54794  53.2167  80.0559 0002090 107.4861 252.6361 15.13053190 31153,6905.032,95.172,528.34,525.454,0.0
54794.0,STARLINK-5392,PAYLOAD,2023-07-12 09:08:05,15.13014105,8.58e-05,53.2174,78.2704,105.2591,254.8497,-0.00058781,-0.00010785,0.0,0 STARLINK-5392,1 54794U 22175AN  23193.38062221 -.00010785  00000-0 -58781-3 0  9993,2 54794  53.2174  78.2704 0000858 105.2591 254.8497 15.13014105 31212,6905.151,95.174,527.609,526.424,0.0
54794.0,STARLINK-5392,PAYLOAD,2023-07-12 17:03:43,15.12983856,0.0001117,53.2182,76.7827,120.2785,239.832,-0.00041458,-7.692e-05,0.0,0 STARLINK-5392,1 54794U 22175AN  23193.71092183 -.00007692  00000-0 -41458-3 0  9996,2 54794  53.2182  76.7827 0001117 120.2785 239.8320 15.12983856 31261,6905.243,95.176,527.88,526.337,0.0
54794.0,STARLINK-5392,PAYLOAD,2023-07-13 15:15:33,15.12910712,9.44e-05,53.2168,72.6044,144.3854,215.7203,-0.0004912,-9.038e-05,0.0,0 STARLINK-5392,1 54794U 22175AN  23194.63580722 -.00009038  00000-0 -49120-3 0  9999,2 54794  53.2168  72.6044 0000944 144.3854 215.7203 15.12910712 31402,6905.466,95.181,527.983,526.679,0.0
54794.0,STARLINK-5392,PAYLOAD,2023-07-14 02:21:31,15.12872994,6.08e-05,53.2183,70.5094,37.3275,322.7761,-0.00066666,-0.00012142,0.0,0 STARLINK-5392,1 54794U 22175AN  23195.09827750 -.00012142  00000-0 -66666-3 0  9999,2 54794  53.2183  70.5094 0000608  37.3275 322.7761 15.12872994 31470,6905.581,95.183,527.865,527.026,0.0
54794.0,STARLINK-5392,PAYLOAD,2023-07-14 22:58:18,15.12797085,4.82e-05,53.217,66.6317,108.1025,252.0021,-0.00058308,-0.00010637,0.0,0 STARLINK-5392,1 54794U 22175AN  23195.95715903 -.00010637  00000-0 -58308-3 0  9991,2 54794  53.2170  66.6317 0000482 108.1025 252.0021 15.12797085 31606,6905.812,95.188,528.009,527.344,0.0
54794.0,STARLINK-5392,PAYLOAD,2023-07-15 05:18:51,15.12785489,5.74e-05,53.2167,65.4381,68.3368,291.7687,-0.00060666,-0.00011051,0.0,0 STARLINK-5392,1 54794U 22175AN  23196.22143501 -.00011051  00000-0 -60666-3 0  9992,2 54794  53.2167  65.4381 0000574  68.3368 291.7687 15.12785489 31646,6905.847,95.189,528.108,527.315,0.0
54794.0,STARLINK-5392,PAYLOAD,2023-07-15 14:49:43,15.12739611,4.23e-05,53.2161,63.6491,129.9263,230.1768,-0.00039005,-7.207e-05,0.0,0 STARLINK-5392,1 54794U 22175AN  23196.61786105 -.00007207  00000-0 -39005-3 0  9999,2 54794  53.2161  63.6491 0000423 129.9263 230.1768 15.12739611 31703,6905.986,95.192,528.144,527.559,0.0
54794.0,STARLINK-5392,PAYLOAD,2023-07-16 00:20:36,15.12704656,3.26e-05,53.2163,61.8602,148.9611,211.1402,-0.00058122,-0.00010577,0.0,0 STARLINK-5392,1 54794U 22175AN  23197.01430794 -.00010577  00000-0 -58122-3 0  9999,2 54794  53.2163  61.8602 0000326 148.9611 211.1402 15.12704656 31760,6906.093,95.194,528.183,527.733,0.0
54794.0,STARLINK-5392,PAYLOAD,2023-07-16 08:16:20,15.12687396,5.02e-05,53.2172,60.3674,71.824,288.2809,-0.00065817,-0.0001193,0.0,0 STARLINK-5392,1 54794U 22175AN  23197.34467616 -.00011930  00000-0 -65817-3 0  9991,2 54794  53.2172  60.3674 0000502  71.8240 288.2809 15.12687396 31814,6906.145,95.195,528.357,527.664,0.0
54794.0,STARLINK-5392,PAYLOAD,2023-07-17 00:07:49,15.12633353,4.48e-05,53.2168,57.3848,50.3227,309.7807,-0.0005474,-9.96e-05,0.0,0 STARLINK-5392,1 54794U 22175AN  23198.00542922 -.00009960  00000-0 -54740-3 0  9992,2 54794  53.2168  57.3848 0000448  50.3227 309.7807 15.12633353 31916,6906.31,95.198,528.484,527.865,0.0
54794.0,STARLINK-5392,PAYLOAD,2023-07-17 08:03:34,15.12616546,2.5e-05,53.2168,55.8909,73.6213,286.4808,-0.0006464,-0.000117,0.0,0 STARLINK-5392,1 54794U 22175AN  23198.33581303 -.00011700  00000-0 -64640-3 0  9999,2 54794  53.2168  55.8909 0000250  73.6213 286.4808 15.12616546 31963,6906.361,95.199,528.399,528.053,0.0
54794.0,STARLINK-5392,PAYLOAD,2023-07-17 17:34:28,15.12581929,2.57e-05,53.2175,54.1032,114.1919,245.9102,-0.00040937,-7.516e-05,0.0,0 STARLINK-5392,1 54794U 22175AN  23198.73227673 -.00007516  00000-0 -40937-3 0  9993,2 54794  53.2175  54.1032 0000257 114.1919 245.9102 15.12581929 32022,6906.466,95.201,528.509,528.154,0.0
54794.0,STARLINK-5392,PAYLOAD,2023-07-17 23:55:06,15.12554163,2.09e-05,53.2173,52.9115,24.7196,335.3808,-0.00050921,-9.267e-05,0.0,0 STARLINK-5392,1 54794U 22175AN  23198.99660423 -.00009267  00000-0 -50921-3 0  9994,2 54794  53.2173  52.9115 0000209  24.7196 335.3808 15.12554163 32069,6906.551,95.203,528.56,528.272,0.0
54794.0,STARLINK-5392,PAYLOAD,2023-07-18 17:21:50,15.12505838,5.75e-05,53.2161,49.6217,96.7168,263.3891,-0.00052369,-9.509e-05,0.0,0 STARLINK-5392,1 54794U 22175AN  23199.72349829 -.00009509  00000-0 -52369-3 0  9997,2 54794  53.2161  49.6217 0000575  96.7168 263.3891 15.12505838 32175,6906.698,95.206,528.96,528.166,0.0
54794.0,STARLINK-5392,PAYLOAD,2023-07-18 23:42:29,15.12470082,6.29e-05,53.2175,48.4351,2.2878,357.8119,-0.00057337,-0.00010372,0.0,0 STARLINK-5392,1 54794U 22175AN  23199.98783969 -.00010372  00000-0 -57337-3 0  9992,2 54794  53.2175  48.4351 0000629   2.2878 357.8119 15.12470082 32215,6906.807,95.208,529.106,528.237,0.0
54794.0,STARLINK-5392,PAYLOAD,2023-07-19 17:09:15,15.12428151,5.25e-05,53.2163,45.1486,184.0595,176.0395,-0.00049845,-9.047e-05,0.0,0 STARLINK-5392,1 54794U 22175AN  23200.71476196 -.00009047  00000-0 -49845-3 0  9999,2 54794  53.2163  45.1486 0000525 184.0595 176.0395 15.12428151 32324,6906.935,95.211,529.162,528.437,0.0
54794.0,STARLINK-5392,PAYLOAD,2023-07-21 02:27:48,15.12302455,3.49e-05,53.2163,38.889,344.8692,15.2291,-0.00065704,-0.00011785,0.0,0 STARLINK-5392,1 54794U 22175AN  23202.10264312 -.00011785  00000-0 -65704-3 0  9993,2 54794  53.2163  38.8890 0000349 344.8692  15.2291 15.12302455 32530,6907.317,95.219,529.423,528.941,0.0
54794.0,STARLINK-5392,PAYLOAD,2023-07-21 16:44:20,15.12259157,7.38e-05,53.2173,36.2042,3.6657,356.4342,-0.00049336,-8.916e-05,0.0,0 STARLINK-5392,1 54794U 22175AN  23202.69746519 -.00008916  00000-0 -49336-3 0  9996,2 54794  53.2173  36.2042 0000738   3.6657 356.4342 15.12259157 32622,6907.449,95.222,529.824,528.804,0.0
54794.0,STARLINK-5392,PAYLOAD,2023-07-24 00:15:33,15.12140356,2.99e-05,53.2168,25.7658,354.5699,5.5291,-0.00022637,-4.241e-05,0.0,0 STARLINK-5392,1 54794U 22175AN  23205.01080382 -.00004241  00000-0 -22637-3 0  9996,2 54794  53.2168  25.7658 0000299 354.5699   5.5291 15.12140356 35132,6907.811,95.229,529.882,529.469,0.0
54794.0,STARLINK-5392,PAYLOAD,2023-07-25 11:09:30,15.12117435,5.14e-05,53.2186,19.2043,5.3254,354.7745,-3.0236e-05,-8.24e-06,0.0,0 STARLINK-5392,1 54794U 22175AN  23206.46493257 -.00000824  00000-0 -30236-4 0  9993,2 54794  53.2186  19.2043 0000514   5.3254 354.7745 15.12117435 35355,6907.881,95.231,530.101,529.391,0.0
54794.0,STARLINK-5392,PAYLOAD,2023-07-25 19:05:23,15.12120728,5.85e-05,53.2187,17.7133,8.0456,352.0547,-1.7461e-06,-3.27e-06,0.0,0 STARLINK-5392,1 54794U 22175AN  23206.79541111 -.00000327  00000-0 -17461-5 0  9996,2 54794  53.2187  17.7133 0000585   8.0456 352.0547 15.12120728 35407,6907.871,95.23,530.14,529.332,0.0
54794.0,STARLINK-5392,PAYLOAD,2023-07-26 20:28:14,15.12122032,7.07e-05,53.2194,12.9429,13.1637,346.9375,5.8161e-05,7.16e-06,0.0,0 STARLINK-5392,1 54794U 22175AN  23207.85294891  .00000716  00000-0  58161-4 0  9995,2 54794  53.2194  12.9429 0000707  13.1637 346.9375 15.12122032 35562,6907.867,95.23,530.22,529.243,0.0
54794.0,STARLINK-5392,PAYLOAD,2023-07-27 10:44:52,15.12112523,0.0001312,53.2193,10.2624,12.5088,347.5938,1.5893e-06,-2.7e-06,0.0,0 STARLINK-5392,1 54794U 22175AN  23208.44782638 -.00000270  00000-0  15893-5 0  9994,2 54794  53.2193  10.2624 0001312  12.5088 347.5938 15.12112523 33491,6907.896,95.231,530.667,528.854,0.0
54794.0,STARLINK-5392,PAYLOAD,2023-07-27 17:05:35,15.12113375,0.0001142,53.2193,9.0689,13.1834,346.9189,-2.9595e-05,-8.13e-06,0.0,0 STARLINK-5392,1 54794U 22175AN  23208.71221188 -.00000813  00000-0 -29595-4 0  9999,2 54794  53.2193   9.0689 0001142  13.1834 346.9189 15.12113375 35696,6907.893,95.231,530.547,528.969,0.0
54794.0,STARLINK-5392,PAYLOAD,2023-07-28 10:32:32,15.12124015,9.38e-05,53.2197,5.7873,21.7115,338.3918,2.3139e-05,1.06e-06,0.0,0 STARLINK-5392,1 54794U 22175AN  23209.43926250  .00000106  00000-0  23139-4 0  9992,2 54794  53.2197   5.7873 0000938  21.7115 338.3918 15.12124015 33648,6907.861,95.23,530.374,529.078,0.0
54794.0,STARLINK-5392,PAYLOAD,2023-07-28 21:38:47,15.12116773,4.92e-05,53.2187,3.6958,31.9586,328.1437,-7.9988e-05,-1.69e-05,0.0,0 STARLINK-5392,1 54794U 22175AN  23209.90194338 -.00001690  00000-0 -79988-4 0  9992,2 54794  53.2187   3.6958 0000492  31.9586 328.1437 15.12116773 33711,6907.883,95.231,530.088,529.408,0.0
